[{"OBJECT_NAME":"STARLINK-35516","OBJECT_ID":"2025-225J","EPOCH":"2026-03-09T14:01:02.415936","MEAN_MOTION":15.30190916,"ECCENTRICITY":9.85e-5,"INCLINATION":53.1603,"RA_OF_ASC_NODE":166.0504,"ARG_OF_PERICENTER":71.0768,"MEAN_ANOMALY":289.0339,"EPHEMERIS_TYPE":0,"CLASSIFICATION_TYPE":"U","NORAD_CAT_ID":65918,"ELEMENT_SET_NO":999,"REV_AT_EPOCH":2439,"BSTAR":0.0008875,"MEAN_MOTION_DOT":0.00026011,"MEAN_MOTION_DDOT":0},{"OBJECT_NAME":"FENGYUN 1C DEB","OBJECT_ID":"1999-025AQG","EPOCH":"2026-03-09T10:43:06.043872","MEAN_MOTION":15.25746961,"ECCENTRICITY":0.00178142,"INCLINATION":98.9311,"RA_OF_ASC_NODE":250.2123,"ARG_OF_PERICENTER":328.3876,"MEAN_ANOMALY":31.6286,"EPHEMERIS_TYPE":0,"CLASSIFICATION_TYPE":"U","NORAD_CAT_ID":30674,"ELEMENT_SET_NO":999,"REV_AT_EPOCH":98658,"BSTAR":0.015201752,"MEAN_MOTION_DOT":0.00411052,"MEAN_MOTION_DDOT":0}]
